0 GOES 12
1 26871U 01031A   13281.91722755  .00000024  00000-0  10000-3 0  2591
2 26871 003.7208 072.7579 0005721 173.3647 182.2244 00.99134867 44782
0 GOES 12
1 26871U 01031A   13281.91722755  .00000024  00000-0  10000-3 0  2603
2 26871 003.7208 072.7579 0005721 173.3647 182.2244 00.99134867 44782
0 GOES 12
1 26871U 01031A   13282.90392181  .00000040  00000-0  10000-3 0  2618
2 26871 003.7229 072.7445 0005722 172.6135 175.1280 00.99134719 44790
0 GOES 12
1 26871U 01031A   13282.93882574  .00000000  00000-0  10000-3 0  2617
2 26871 003.7227 072.7428 0005580 172.2502 187.9436 00.99131640 44722
0 GOES 12
1 26871U 01031A   13283.72359690  .00000050  00000-0  10000-3 0  2629
2 26871 003.7249 072.7298 0005364 173.1999 107.0743 00.99133790 44802
0 GOES 12
1 26871U 01031A   13283.72359690  .00000050  00000-0  10000-3 0  2630
2 26871 003.7249 072.7298 0005364 173.1999 107.0743 00.99133790 44802
0 GOES 12
1 26871U 01031A   13283.72359690  .00000050  00000-0  10000-3 0  2641
2 26871 003.7249 072.7298 0005364 173.1999 107.0743 00.99133790 44802
0 GOES 12
1 26871U 01031A   13285.55739426  .00000066  00000-0  10000-3 0  2662
2 26871 003.7291 072.7069 0005441 173.5695 041.1861 00.99133949 44825
0 GOES 12
1 26871U 01031A   13285.87998780  .00000067  00000-0  10000-3 0  2679
2 26871 003.7300 072.7039 0005432 173.1519 156.7361 00.99133981 44828
0 GOES 12
1 26871U 01031A   13287.07026100  .00000070  00000-0  10000-3 0  2686
2 26871 003.7326 072.6870 0005595 172.8067 221.8897 00.99134160 44842
0 GOES 12
1 26871U 01031A   13287.07026100  .00000070  00000-0  10000-3 0  2697
2 26871 003.7326 072.6870 0005595 172.8067 221.8897 00.99134160 44842
0 GOES 12
1 26871U 01031A   13288.13901508  .00000069  00000-0  10000-3 0  2709
2 26871 003.7350 072.6742 0005689 173.1785 242.9574 00.99134493 44858
0 GOES 12
1 26871U 01031A   13288.13901508  .00000069  00000-0  10000-3 0  2710
2 26871 003.7350 072.6742 0005689 173.1785 242.9574 00.99134493 44858
0 GOES 12
1 26871U 01031A   13289.09130442  .00000065  00000-0  10000-3 0  2724
2 26871 003.7370 072.6629 0005768 173.4689 222.5407 00.99134826 44868
0 GOES 12
1 26871U 01031A   13289.99958147  .00000000  00000-0  10000-3 0  2755
2 26871 003.7391 072.6507 0006200 175.5773 184.6160 00.99132856 44871
0 GOES 12
1 26871U 01031A   13290.11077203  .00000057  00000-0  10000-3 0  2736
2 26871 003.7392 072.6502 0005858 173.9474 225.9148 00.99135258 44879
0 GOES 12
1 26871U 01031A   13291.19109212  .00000045  00000-0  10000-3 0  2750
2 26871 003.7416 072.6361 0005942 174.0473 251.3888 00.99135750 44886
0 GOES 12
1 26871U 01031A   13291.19109212  .00000045  00000-0  10000-3 0  2761
2 26871 003.7416 072.6361 0005942 174.0473 251.3888 00.99135750 44886
0 GOES 12
1 26871U 01031A   13292.12883396  .00000032  00000-0  10000-3 0  2774
2 26871 003.7436 072.6238 0005957 174.2838 225.8410 00.99136205 44898
0 GOES 12
1 26871U 01031A   13293.06060855  .00000016  00000-0  10000-3 0  2788
2 26871 003.7455 072.6123 0005968 174.4390 198.2458 00.99136664 44905
0 GOES 12
1 26871U 01031A   13294.16774010 -.00000005  00000-0  10000-3 0  2795
2 26871 003.7478 072.5992 0005865 174.0446 233.7889 00.99137198 44914
0 GOES 12
1 26871U 01031A   13294.23512984 -.00000006  00000-0  10000-3 0  2806
2 26871 003.7480 072.5982 0005871 174.1417 257.7445 00.99137235 44918
0 GOES 12
1 26871U 01031A   13295.18076318 -.00000026  00000-0  10000-3 0  2810
2 26871 003.7501 072.5865 0005992 173.6845 235.7152 00.99137773 44924
